[{"OBJECT_NAME":"STARLINK-1591","OBJECT_ID":"2020-055U","EPOCH":"2026-03-10T00:00:02.999808","MEAN_MOTION":15.18497861,"ECCENTRICITY":3.326e-5,"INCLINATION":53.1044,"RA_OF_ASC_NODE":124.8093,"ARG_OF_PERICENTER":103.7008,"MEAN_ANOMALY":218.0512,"EPHEMERIS_TYPE":0,"CLASSIFICATION_TYPE":"U","NORAD_CAT_ID":46045,"ELEMENT_SET_NO":999,"REV_AT_EPOCH":579,"BSTAR":0.0057904655,"MEAN_MOTION_DOT":0.00122649,"MEAN_MOTION_DDOT":0},{"OBJECT_NAME":"ETIHAD-SAT","OBJECT_ID":"2025-052S","EPOCH":"2026-03-09T16:03:28.707264","MEAN_MOTION":15.21246201,"ECCENTRICITY":0.00067443,"INCLINATION":97.4075,"RA_OF_ASC_NODE":322.8388,"ARG_OF_PERICENTER":120.6163,"MEAN_ANOMALY":239.5739,"EPHEMERIS_TYPE":0,"CLASSIFICATION_TYPE":"U","NORAD_CAT_ID":63226,"ELEMENT_SET_NO":999,"REV_AT_EPOCH":5470,"BSTAR":0.00038811178,"MEAN_MOTION_DOT":8.608e-5,"MEAN_MOTION_DDOT":0}]
